CTC2_L_00337016-03
1 24569U 24496FY  26037.47793981  .00000000  00000+0  00000-0 0  9996
2 24569 100.0000 180.0000 0000000   0.0000   0.0000 13.56072426    15
CTC2_L_00337016-04
1 24570U 22830CJ  26037.47793981  .00000000  00000+0  00000-0 0  9998
2 24570 100.0000 180.0000 0000000   0.0000  90.0000 13.56072426    16
CTC2_L_00337017-01
1 24571U 23864UH  26037.47793981  .00000000  00000+0  00000-0 0  9997
2 24571 100.0000 192.0000 0000000   0.0000 192.0000 13.56072426    13
CTC2_L_00337017-02
1 24572U 25271DN  26037.47793981  .00000000  00000+0  00000-0 0  9992
2 24572 100.0000 192.0000 0000000   0.0000 282.0000 13.56072426    14
CTC2_L_00337017-03
1 24573U 24368EW  26037.47793981  .00000000  00000+0  00000-0 0  9999
2 24573 100.0000 192.0000 0000000   0.0000  12.0000 13.56072426    16
CTC2_L_00337017-04
1 24574U 22608WA  26037.47793981  .00000000  00000+0  00000-0 0  9995
2 24574 100.0000 192.0000 0000000   0.0000 102.0000 13.56072426    17
CTC2_L_00337018-01
1 24575U 24193GF  26037.47793981  .00000000  00000+0  00000-0 0  9997
2 24575 100.0000 204.0000 0000000   0.0000 204.0000 13.56072426    15
CTC2_L_00337018-02
1 24576U 25939HC  26037.47793981  .00000000  00000+0  00000-0 0  9997
2 24576 100.0000 204.0000 0000000   0.0000 294.0000 13.56072426    15
CTC2_L_00337018-03
1 24577U 23855RX  26037.47793981  .00000000  00000+0  00000-0 0  9993
2 24577 100.0000 204.0000 0000000   0.0000  24.0000 13.56072426    17
CTC2_L_00337018-04
1 24578U 24279SA  26037.47793981  .00000000  00000+0  00000-0 0  9995
2 24578 100.0000 204.0000 0000000   0.0000 114.0000 13.56072426    18
CTC2_L_00337019-01
1 24579U 23867RB  26037.47793981  .00000000  00000+0  00000-0 0  9998
2 24579 100.0000 216.0000 0000000   0.0000 216.0000 13.56072426    15
CTC2_L_00337019-02
1 24580U 23571FJ  26037.47793981  .00000000  00000+0  00000-0 0  9992
2 24580 100.0000 216.0000 0000000   0.0000 306.0000 13.56072426    17
CTC2_L_00337019-03
1 24581U 25278AC  26037.47793981  .00000000  00000+0  00000-0 0  9999
2 24581 100.0000 216.0000 0000000   0.0000  36.0000 13.56072426    18
CTC2_L_00337019-04
1 24582U 25183HG  26037.47793981  .00000000  00000+0  00000-0 0  9995
2 24582 100.0000 216.0000 0000000   0.0000 126.0000 13.56072426    19
CTC2_L_00337020-01
1 24583U 23708KN  26037.47793981  .00000000  00000+0  00000-0 0  9997
2 24583 100.0000 228.0000 0000000   0.0000 228.0000 13.56072426    16
CTC2_L_00337020-02
1 24584U 26138YP  26037.47793981  .00000000  00000+0  00000-0 0  9998
2 24584 100.0000 228.0000 0000000   0.0000 318.0000 13.56072426    17
CTC2_L_00337020-03
1 24585U 24397MW  26037.47793981  .00000000  00000+0  00000-0 0  9994
2 24585 100.0000 228.0000 0000000   0.0000  48.0000 13.56072426    18
CTC2_L_00337020-04
1 24586U 22291TP  26037.47793981  .00000000  00000+0  00000-0 0  9996
2 24586 100.0000 228.0000 0000000   0.0000 138.0000 13.56072426    19
CTC2_L_00337021-01
1 24587U 25246XU  26037.47793981  .00000000  00000+0  00000-0 0  9990
2 24587 100.0000 240.0000 0000000   0.0000 240.0000 13.56072426    18
CTC2_L_00337021-02
1 24588U 22029VI  26037.47793981  .00000000  00000+0  00000-0 0  9997
2 24588 100.0000 240.0000 0000000   0.0000 330.0000 13.56072426    19
CTC2_L_00337021-03
1 24589U 25637HK  26037.47793981  .00000000  00000+0  00000-0 0  9996
2 24589 100.0000 240.0000 0000000   0.0000  60.0000 13.56072426    10
CTC2_L_00337021-04
1 24590U 25093JV  26037.47793981  .00000000  00000+0  00000-0 0  9994
2 24590 100.0000 240.0000 0000000   0.0000 150.0000 13.56072426    12
CTC2_L_00337022-01
1 24591U 24502EM  26037.47793981  .00000000  00000+0  00000-0 0  9999
2 24591 100.0000 252.0000 0000000   0.0000 252.0000 13.56072426    19
CTC2_L_00337022-02
1 24592U 23656MU  26037.47793981  .00000000  00000+0  00000-0 0  9999
2 24592 100.0000 252.0000 0000000   0.0000 342.0000 13.56072426    10
CTC2_L_00337022-03
1 24593U 24644RX  26037.47793981  .00000000  00000+0  00000-0 0  9998
2 24593 100.0000 252.0000 0000000   0.0000  72.0000 13.56072426    11
CTC2_L_00337022-04
1 24594U 25333JK  26037.47793981  .00000000  00000+0  00000-0 0  9995
2 24594 100.0000 252.0000 0000000   0.0000 162.0000 13.56072426    12
CTC2_L_00337023-01
1 24595U 25278AS  26037.47793981  .00000000  00000+0  00000-0 0  9994
2 24595 100.0000 264.0000 0000000   0.0000 264.0000 13.56072426    19
CTC2_L_00337023-02
1 24596U 26473HC  26037.47793981  .00000000  00000+0  00000-0 0  9993
2 24596 100.0000 264.0000 0000000   0.0000 354.0000 13.56072426    10
CTC2_L_00337023-03
1 24597U 23205VV  26037.47793981  .00000000  00000+0  00000-0 0  9994
2 24597 100.0000 264.0000 0000000   0.0000  84.0000 13.56072426    11
CTC2_L_00337023-04
1 24598U 23080SW  26037.47793981  .00000000  00000+0  00000-0 0  9996
2 24598 100.0000 264.0000 0000000   0.0000 174.0000 13.56072426    12
CTC2_L_00337024-01
1 24599U 25595GD  26037.47793981  .00000000  00000+0  00000-0 0  9990
2 24599 100.0000 276.0000 0000000   0.0000 276.0000 13.56072426    19
CTC2_L_00337024-02
1 24600U 23542BV  26037.47793981  .00000000  00000+0  00000-0 0  9993
2 24600 100.0000 276.0000 0000000   0.0000   6.0000 13.56072426    13
CTC2_L_00337024-03
1 24601U 26363BI  26037.47793981  .00000000  00000+0  00000-0 0  9998
2 24601 100.0000 276.0000 0000000   0.0000  96.0000 13.56072426    13
CTC2_L_00337024-04
1 24602U 25861HM  26037.47793981  .00000000  00000+0  00000-0 0  9991
2 24602 100.0000 276.0000 0000000   0.0000 186.0000 13.56072426    14
CTC2_L_00337025-01
1 24603U 25525XT  26037.47793981  .00000000  00000+0  00000-0 0  9999
2 24603 100.0000 288.0000 0000000   0.0000 288.0000 13.56072426    11
CTC2_L_00337025-02
1 24604U 22610HJ  26037.47793981  .00000000  00000+0  00000-0 0  9992
2 24604 100.0000 288.0000 0000000   0.0000  18.0000 13.56072426    13
CTC2_L_00337025-03
1 24605U 22476GC  26037.47793981  .00000000  00000+0  00000-0 0  9993
2 24605 100.0000 288.0000 0000000   0.0000 108.0000 13.56072426    14
CTC2_L_00337025-04
1 24606U 22995JL  26037.47793981  .00000000  00000+0  00000-0 0  9990
2 24606 100.0000 288.0000 0000000   0.0000 198.0000 13.56072426    14
CTC2_L_00337026-01
1 24607U 25100WQ  26037.47793981  .00000000  00000+0  00000-0 0  9992
2 24607 100.0000 300.0000 0000000   0.0000 300.0000 13.56072426    15
CTC2_L_00337026-02
1 24608U 23910JA  26037.47793981  .00000000  00000+0  00000-0 0  9990
2 24608 100.0000 300.0000 0000000   0.0000  30.0000 13.56072426    16
CTC2_L_00337026-03
1 24609U 22146SY  26037.47793981  .00000000  00000+0  00000-0 0  9991
2 24609 100.0000 300.0000 0000000   0.0000 120.0000 13.56072426    17
CTC2_L_00337026-04
1 24610U 22912YD  26037.47793981  .00000000  00000+0  00000-0 0  9994
2 24610 100.0000 300.0000 0000000   0.0000 210.0000 13.56072426    19
CTC2_L_00337027-01
1 24611U 24092MB  26037.47793981  .00000000  00000+0  00000-0 0  9996
2 24611 100.0000 312.0000 0000000   0.0000 312.0000 13.56072426    16
CTC2_L_00337027-02
1 24612U 24225QS  26037.47793981  .00000000  00000+0  00000-0 0  9995
2 24612 100.0000 312.0000 0000000   0.0000  42.0000 13.56072426    17
CTC2_L_00337027-03
1 24613U 25345TH  26037.47793981  .00000000  00000+0  00000-0 0  9990
2 24613 100.0000 312.0000 0000000   0.0000 132.0000 13.56072426    18
CTC2_L_00337027-04
1 24614U 25394PU  26037.47793981  .00000000  00000+0  00000-0 0  9995
2 24614 100.0000 312.0000 0000000   0.0000 222.0000 13.56072426    19
CTC2_L_00337028-01
1 24615U 23191UR  26037.47793981  .00000000  00000+0  00000-0 0  9999
2 24615 100.0000 324.0000 0000000   0.0000 324.0000 13.56072426    16
CTC2_L_00337028-02
1 24616U 23098WP  26037.47793981  .00000000  00000+0  00000-0 0  9996
2 24616 100.0000 324.0000 0000000   0.0000  54.0000 13.56072426    17
CTC2_L_00337028-03
1 24617U 22634DJ  26037.47793981  .00000000  00000+0  00000-0 0  9992
2 24617 100.0000 324.0000 0000000   0.0000 144.0000 13.56072426    18
CTC2_L_00337028-04
1 24618U 25719SN  26037.47793981  .00000000  00000+0  00000-0 0  9990
2 24618 100.0000 324.0000 0000000   0.0000 234.0000 13.56072426    19
CTC2_L_00337029-01
1 24619U 22452HR  26037.47793981  .00000000  00000+0  00000-0 0  9992
2 24619 100.0000 336.0000 0000000   0.0000 336.0000 13.56072426    16
CTC2_L_00337029-02
1 24620U 26410QR  26037.47793981  .00000000  00000+0  00000-0 0  9992
2 24620 100.0000 336.0000 0000000   0.0000  66.0000 13.56072426    18
CTC2_L_00337029-03
1 24621U 23762CF  26037.47793981  .00000000  00000+0  00000-0 0  9990
2 24621 100.0000 336.0000 0000000   0.0000 156.0000 13.56072426    19
CTC2_L_00337029-04
1 24622U 26100FS  26037.47793981  .00000000  00000+0  00000-0 0  9990
2 24622 100.0000 336.0000 0000000   0.0000 246.0000 13.56072426    10
CTC2_L_00337030-01
1 24623U 24341MW  26037.47793981  .00000000  00000+0  00000-0 0  9996
2 24623 100.0000 348.0000 0000000   0.0000 348.0000 13.56072426    17
CTC2_L_00337030-02
1 24624U 24164WN  26037.47793981  .00000000  00000+0  00000-0 0  9990
2 24624 100.0000 348.0000 0000000   0.0000  78.0000 13.56072426    18
CTC2_L_00337030-03
1 24625U 23164TD  26037.47793981  .00000000  00000+0  00000-0 0  9990
2 24625 100.0000 348.0000 0000000   0.0000 168.0000 13.56072426    19
CTC2_L_00337030-04
1 24626U 26420AX  26037.47793981  .00000000  00000+0  00000-0 0  9999
2 24626 100.0000 348.0000 0000000   0.0000 258.0000 13.56072426    10
